LEMUR-2-TARTIFLETTE     
1 66784U 25276DZ  26116.75920667  .00008903  00000+0  74968-3 0  9997
2 66784  97.5295 189.1774 0011712 318.1111  41.9215 14.98390669 22499
LEMUR-2-VUKASIN         
1 66785U 25276EA  26116.73119299  .00008797  00000+0  71683-3 0  9999
2 66785  97.5241 189.3401 0006139 303.4202  56.6434 14.99700107 22438
LEMUR-2-HOTSPUR-TOM     
1 66786U 25276EB  26116.68222029  .00008030  00000+0  67707-3 0  9992
2 66786  97.5267 189.0997 0012007 311.1247  48.8939 14.98367572 22415
LEMUR-2-MYRA            
1 66787U 25276EC  26116.69227807  .00007211  00000+0  58860-3 0  9993
2 66787  97.5313 189.2618 0011006 323.8982  36.1498 14.99667388 22491
LEMUR-2 FIKRETDENGIZ    
1 67363U 26004A   26116.96475278  .00004939  00000+0  54463-3 0  9990
2 67363  97.8019 116.3273 0007489 318.4152  41.6494 14.87926386 15666
LEMUR-2-CALLUM-K-J      
1 67364U 26004B   26116.90411622  .00001877  00000+0  21286-3 0  9993
2 67364  97.8065 116.2966 0007282 305.2100  54.8434 14.87521640 15668
LEMUR-2-MARIO-SOUSA     
1 67365U 26004C   26116.95420915  .00005444  00000+0  59736-3 0  9999
2 67365  97.7998 116.3153 0007054 320.1963  39.8735 14.88086898 15672
LEMUR-2-SONNENBLUME     
1 67367U 26004E   26116.94850011  .00003563  00000+0  39350-3 0  9994
2 67367  97.7990 116.3085 0006857 322.0168  38.0565 14.88046259 15677
LEMUR-2-WOBLER          
1 67368U 26004F   26116.94696846  .00005144  00000+0  56432-3 0  9996
2 67368  97.8047 116.3815 0006522 310.0048  50.0595 14.88128387 15676
LEMUR-2-GRAM-E-SUE      
1 67370U 26004H   26116.93856408  .00005412  00000+0  59206-3 0  9990
2 67370  97.7978 116.3087 0005945 326.9406  33.1438 14.88219923 15679
LEMUR-2-KATIE           
1 67387U 26004AA  26116.57501980  .00005104  00000+0  53887-3 0  9997
2 67387  97.8042 116.2472 0001264 254.3252 105.7826 14.89699475 15627
LEMUR-2-HCS-BAZUS       
1 67388U 26004AB  26116.70692154  .00005738  00000+0  60654-3 0  9990
2 67388  97.8033 116.3693 0000898 228.1545 131.9596 14.89597256 15641
