[{"OBJECT_NAME":"LEMUR-2-TARTIFLETTE","OBJECT_ID":"2025-276DZ","EPOCH":"2026-04-26T18:13:15.456288","MEAN_MOTION":14.98390669,"ECCENTRICITY":0.00117122,"INCLINATION":97.5295,"RA_OF_ASC_NODE":189.1774,"ARG_OF_PERICENTER":318.1111,"MEAN_ANOMALY":41.9215,"EPHEMERIS_TYPE":0,"CLASSIFICATION_TYPE":"U","NORAD_CAT_ID":66784,"ELEMENT_SET_NO":999,"REV_AT_EPOCH":2249,"BSTAR":0.00074967989,"MEAN_MOTION_DOT":8.903e-5,"MEAN_MOTION_DDOT":0},{"OBJECT_NAME":"LEMUR-2-VUKASIN","OBJECT_ID":"2025-276EA","EPOCH":"2026-04-26T17:32:55.074336","MEAN_MOTION":14.99700107,"ECCENTRICITY":0.00061391,"INCLINATION":97.5241,"RA_OF_ASC_NODE":189.3401,"ARG_OF_PERICENTER":303.4202,"MEAN_ANOMALY":56.6434,"EPHEMERIS_TYPE":0,"CLASSIFICATION_TYPE":"U","NORAD_CAT_ID":66785,"ELEMENT_SET_NO":999,"REV_AT_EPOCH":2243,"BSTAR":0.00071683463,"MEAN_MOTION_DOT":8.797e-5,"MEAN_MOTION_DDOT":0},{"OBJECT_NAME":"LEMUR-2-HOTSPUR-TOM","OBJECT_ID":"2025-276EB","EPOCH":"2026-04-26T16:22:23.833056","MEAN_MOTION":14.98367572,"ECCENTRICITY":0.00120074,"INCLINATION":97.5267,"RA_OF_ASC_NODE":189.0997,"ARG_OF_PERICENTER":311.1247,"MEAN_ANOMALY":48.8939,"EPHEMERIS_TYPE":0,"CLASSIFICATION_TYPE":"U","NORAD_CAT_ID":66786,"ELEMENT_SET_NO":999,"REV_AT_EPOCH":2241,"BSTAR":0.00067707071,"MEAN_MOTION_DOT":8.03e-5,"MEAN_MOTION_DDOT":0},{"OBJECT_NAME":"LEMUR-2-MYRA","OBJECT_ID":"2025-276EC","EPOCH":"2026-04-26T16:36:52.825248","MEAN_MOTION":14.99667388,"ECCENTRICITY":0.00110064,"INCLINATION":97.5313,"RA_OF_ASC_NODE":189.2618,"ARG_OF_PERICENTER":323.8982,"MEAN_ANOMALY":36.1498,"EPHEMERIS_TYPE":0,"CLASSIFICATION_TYPE":"U","NORAD_CAT_ID":66787,"ELEMENT_SET_NO":999,"REV_AT_EPOCH":2249,"BSTAR":0.00058860033,"MEAN_MOTION_DOT":7.211e-5,"MEAN_MOTION_DDOT":0},{"OBJECT_NAME":"LEMUR-2 FIKRETDENGIZ","OBJECT_ID":"2026-004A","EPOCH":"2026-04-26T23:09:14.640192","MEAN_MOTION":14.87926386,"ECCENTRICITY":0.00074898,"INCLINATION":97.8019,"RA_OF_ASC_NODE":116.3273,"ARG_OF_PERICENTER":318.4152,"MEAN_ANOMALY":41.6494,"EPHEMERIS_TYPE":0,"CLASSIFICATION_TYPE":"U","NORAD_CAT_ID":67363,"ELEMENT_SET_NO":999,"REV_AT_EPOCH":1566,"BSTAR":0.00054462905,"MEAN_MOTION_DOT":4.939e-5,"MEAN_MOTION_DDOT":0},{"OBJECT_NAME":"LEMUR-2-CALLUM-K-J","OBJECT_ID":"2026-004B","EPOCH":"2026-04-26T21:41:55.641408","MEAN_MOTION":14.8752164,"ECCENTRICITY":0.00072823,"INCLINATION":97.8065,"RA_OF_ASC_NODE":116.2966,"ARG_OF_PERICENTER":305.21,"MEAN_ANOMALY":54.8434,"EPHEMERIS_TYPE":0,"CLASSIFICATION_TYPE":"U","NORAD_CAT_ID":67364,"ELEMENT_SET_NO":999,"REV_AT_EPOCH":1566,"BSTAR":0.00021285677,"MEAN_MOTION_DOT":1.877e-5,"MEAN_MOTION_DDOT":0},{"OBJECT_NAME":"LEMUR-2-MARIO-SOUSA","OBJECT_ID":"2026-004C","EPOCH":"2026-04-26T22:54:03.670560","MEAN_MOTION":14.88086898,"ECCENTRICITY":0.0007054,"INCLINATION":97.7998,"RA_OF_ASC_NODE":116.3153,"ARG_OF_PERICENTER":320.1963,"MEAN_ANOMALY":39.8735,"EPHEMERIS_TYPE":0,"CLASSIFICATION_TYPE":"U","NORAD_CAT_ID":67365,"ELEMENT_SET_NO":999,"REV_AT_EPOCH":1567,"BSTAR":0.00059735705,"MEAN_MOTION_DOT":5.444e-5,"MEAN_MOTION_DDOT":0},{"OBJECT_NAME":"LEMUR-2-SONNENBLUME","OBJECT_ID":"2026-004E","EPOCH":"2026-04-26T22:45:50.409504","MEAN_MOTION":14.88046259,"ECCENTRICITY":0.00068577,"INCLINATION":97.799,"RA_OF_ASC_NODE":116.3085,"ARG_OF_PERICENTER":322.0168,"MEAN_ANOMALY":38.0565,"EPHEMERIS_TYPE":0,"CLASSIFICATION_TYPE":"U","NORAD_CAT_ID":67367,"ELEMENT_SET_NO":999,"REV_AT_EPOCH":1567,"BSTAR":0.00039349817,"MEAN_MOTION_DOT":3.563e-5,"MEAN_MOTION_DDOT":0},{"OBJECT_NAME":"LEMUR-2-WOBLER","OBJECT_ID":"2026-004F","EPOCH":"2026-04-26T22:43:38.074944","MEAN_MOTION":14.88128387,"ECCENTRICITY":0.00065228,"INCLINATION":97.8047,"RA_OF_ASC_NODE":116.3815,"ARG_OF_PERICENTER":310.0048,"MEAN_ANOMALY":50.0595,"EPHEMERIS_TYPE":0,"CLASSIFICATION_TYPE":"U","NORAD_CAT_ID":67368,"ELEMENT_SET_NO":999,"REV_AT_EPOCH":1567,"BSTAR":0.00056431758,"MEAN_MOTION_DOT":5.144e-5,"MEAN_MOTION_DDOT":0},{"OBJECT_NAME":"LEMUR-2-GRAM-E-SUE","OBJECT_ID":"2026-004H","EPOCH":"2026-04-26T22:31:31.936512","MEAN_MOTION":14.88219923,"ECCENTRICITY":0.00059459,"INCLINATION":97.7978,"RA_OF_ASC_NODE":116.3087,"ARG_OF_PERICENTER":326.9406,"MEAN_ANOMALY":33.1438,"EPHEMERIS_TYPE":0,"CLASSIFICATION_TYPE":"U","NORAD_CAT_ID":67370,"ELEMENT_SET_NO":999,"REV_AT_EPOCH":1567,"BSTAR":0.00059206369,"MEAN_MOTION_DOT":5.412e-5,"MEAN_MOTION_DDOT":0},{"OBJECT_NAME":"LEMUR-2-KATIE","OBJECT_ID":"2026-004AA","EPOCH":"2026-04-26T13:48:01.710720","MEAN_MOTION":14.89699475,"ECCENTRICITY":0.0001264,"INCLINATION":97.8042,"RA_OF_ASC_NODE":116.2472,"ARG_OF_PERICENTER":254.3252,"MEAN_ANOMALY":105.7826,"EPHEMERIS_TYPE":0,"CLASSIFICATION_TYPE":"U","NORAD_CAT_ID":67387,"ELEMENT_SET_NO":999,"REV_AT_EPOCH":1562,"BSTAR":0.00053887,"MEAN_MOTION_DOT":5.104e-5,"MEAN_MOTION_DDOT":0},{"OBJECT_NAME":"LEMUR-2-HCS-BAZUS","OBJECT_ID":"2026-004AB","EPOCH":"2026-04-26T16:57:58.021056","MEAN_MOTION":14.89597256,"ECCENTRICITY":8.986e-5,"INCLINATION":97.8033,"RA_OF_ASC_NODE":116.3693,"ARG_OF_PERICENTER":228.1545,"MEAN_ANOMALY":131.9596,"EPHEMERIS_TYPE":0,"CLASSIFICATION_TYPE":"U","NORAD_CAT_ID":67388,"ELEMENT_SET_NO":999,"REV_AT_EPOCH":1564,"BSTAR":0.00060654004,"MEAN_MOTION_DOT":5.738e-5,"MEAN_MOTION_DDOT":0}]
